start=new Date('2023-06-21T00:00:00.000Z').valueOf();
sats=[{"MEAN_MOTION":"15.06390878","BSTAR":"0.00048656000000","OBJECT_TYPE":"PAYLOAD","TIME_SYSTEM":"UTC","MEAN_MOTION_DOT":"0.00006972","MEAN_ANOMALY":"274.3566","LAUNCH_DATE":"2019-11-11","ARG_OF_PERICENTER":"85.7538","EPOCH":"2023-06-20T19:08:40.714080","MEAN_MOTION_DDOT":"0.0000000000000","TLE_LINE1":"1 44724U 19074M   23171.79769345  .00006972  00000-0  48656-3 0  9992","RA_OF_ASC_NODE":"323.8878","FILE":"3938544","PERIOD":"95.593","COUNTRY_CODE":"US","TLE_LINE2":"2 44724  53.0556 323.8878 0001009  85.7538 274.3566 15.06390878199090","INCLINATION":"53.0556","SITE":"AFETR","CLASSIFICATION_TYPE":"U","DECAY_DATE":null,"ECCENTRICITY":"0.00010090","CENTER_NAME":"EARTH","OBJECT_ID":"2019-074M","ELEMENT_SET_NO":"999","EPHEMERIS_TYPE":"0","APOAPSIS":"547.940","PERIAPSIS":"546.543","GP_ID":"234388632","NORAD_CAT_ID":"44724","SEMIMAJOR_AXIS":"6925.377","MEAN_ELEMENT_THEORY":"SGP4","RCS_SIZE":"LARGE","REV_AT_EPOCH":"19909","OBJECT_NAME":"STARLINK-1019","REF_FRAME":"TEME"},{"MEAN_MOTION":"15.06387354","TIME_SYSTEM":"UTC","MEAN_MOTION_DOT":"0.00023396","OBJECT_TYPE":"PAYLOAD","BSTAR":"0.00158490000000","MEAN_ANOMALY":"278.9486","EPOCH":"2023-06-20T19:16:38.922528","ARG_OF_PERICENTER":"81.1646","LAUNCH_DATE":"2019-11-11","MEAN_MOTION_DDOT":"0.0000000000000","FILE":"3938544","RA_OF_ASC_NODE":"343.8554","TLE_LINE1":"1 44725U 19074N   23171.80322827  .00023396  00000-0  15849-2 0  9991","TLE_LINE2":"2 44725  53.0545 343.8554 0001268  81.1646 278.9486 15.06387354198814","COUNTRY_CODE":"US","PERIOD":"95.593","SITE":"AFETR","INCLINATION":"53.0545","DECAY_DATE":null,"CLASSIFICATION_TYPE":"U","ECCENTRICITY":"0.00012680","ELEMENT_SET_NO":"999","EPHEMERIS_TYPE":"0","OBJECT_ID":"2019-074N","CENTER_NAME":"EARTH","NORAD_CAT_ID":"44725","GP_ID":"234388880","SEMIMAJOR_AXIS":"6925.387","PERIAPSIS":"546.374","APOAPSIS":"548.130","RCS_SIZE":"LARGE","MEAN_ELEMENT_THEORY":"SGP4","OBJECT_NAME":"STARLINK-1020","REF_FRAME":"TEME","REV_AT_EPOCH":"19881"},{"MEAN_ANOMALY":"253.1167","ARG_OF_PERICENTER":"106.9962","EPOCH":"2023-06-20T19:03:22.206528","LAUNCH_DATE":"2019-11-11","MEAN_MOTION":"15.06392682","MEAN_MOTION_DOT":"0.00007454","TIME_SYSTEM":"UTC","BSTAR":"0.00051889000000","OBJECT_TYPE":"PAYLOAD","RA_OF_ASC_NODE":"323.9073","TLE_LINE1":"1 44726U 19074P   23171.79400702  .00007454  00000-0  51889-3 0  9991","FILE":"3938544","TLE_LINE2":"2 44726  53.0556 323.9073 0001277 106.9962 253.1167 15.06392682199091","PERIOD":"95.593","COUNTRY_CODE":"US","MEAN_MOTION_DDOT":"0.0000000000000","CLASSIFICATION_TYPE":"U","DECAY_DATE":null,"ECCENTRICITY":"0.00012770","SITE":"AFETR","INCLINATION":"53.0556","RCS_SIZE":"LARGE","MEAN_ELEMENT_THEORY":"SGP4","REF_FRAME":"TEME","OBJECT_NAME":"STARLINK-1021","REV_AT_EPOCH":"19909","EPHEMERIS_TYPE":"0","ELEMENT_SET_NO":"999","CENTER_NAME":"EARTH","OBJECT_ID":"2019-074P","NORAD_CAT_ID":"44726","GP_ID":"234388131","SEMIMAJOR_AXIS":"6925.371","APOAPSIS":"548.120","PERIAPSIS":"546.352"},{"MEAN_MOTION":"15.79784579","MEAN_MOTION_DOT":"0.00063849","TIME_SYSTEM":"UTC","BSTAR":"0.00034112000000","OBJECT_TYPE":"PAYLOAD","MEAN_ANOMALY":"96.8907","ARG_OF_PERICENTER":"263.1862","EPOCH":"2023-06-20T19:50:40.972704","LAUNCH_DATE":"2019-11-11","MEAN_MOTION_DDOT":"0.0000000000000","FILE":"3938544","TLE_LINE1":"1 44727U 19074Q   23171.82686311  .00063849  00000-0  34112-3 0  9998","RA_OF_ASC_NODE":"329.4297","TLE_LINE2":"2 44727  53.0522 329.4297 0002215 263.1862  96.8907 15.79784579199030","COUNTRY_CODE":"US","PERIOD":"91.152","SITE":"AFETR","INCLINATION":"53.0522","DECAY_DATE":null,"CLASSIFICATION_TYPE":"U","ECCENTRICITY":"0.00022150","EPHEMERIS_TYPE":"0","ELEMENT_SET_NO":"999","OBJECT_ID":"2019-074Q","CENTER_NAME":"EARTH","NORAD_CAT_ID":"44727","GP_ID":"234387882","SEMIMAJOR_AXIS":"6709.187","PERIAPSIS":"329.566","APOAPSIS":"332.539","RCS_SIZE":"LARGE","MEAN_ELEMENT_THEORY":"SGP4","OBJECT_NAME":"STARLINK-1022","REF_FRAME":"TEME","REV_AT_EPOCH":"19903"},{"GP_ID":"234389132","SEMIMAJOR_AXIS":"6801.264","NORAD_CAT_ID":"44729","APOAPSIS":"427.448","PERIAPSIS":"418.809","EPHEMERIS_TYPE":"0","ELEMENT_SET_NO":"999","CENTER_NAME":"EARTH","OBJECT_ID":"2019-074S","REF_FRAME":"TEME","OBJECT_NAME":"STARLINK-1024","REV_AT_EPOCH":"19963","RCS_SIZE":"LARGE","MEAN_ELEMENT_THEORY":"SGP4","SITE":"AFETR","INCLINATION":"53.0194","ECCENTRICITY":"0.00063510","CLASSIFICATION_TYPE":"U","DECAY_DATE":null,"MEAN_MOTION_DDOT":"0.0000000000000","TLE_LINE2":"2 44729  53.0194 281.7531 0006351 163.6515 196.4698 15.47812434199639","PERIOD":"93.035","COUNTRY_CODE":"US","TLE_LINE1":"1 44729U 19074S   23171.73284335  .00036088  00000-0  68845-3 0  9995","RA_OF_ASC_NODE":"281.7531","FILE":"3938544","MEAN_MOTION_DOT":"0.00036088","TIME_SYSTEM":"UTC","OBJECT_TYPE":"PAYLOAD","BSTAR":"0.00068845000000","MEAN_MOTION":"15.47812434","ARG_OF_PERICENTER":"163.6515","EPOCH":"2023-06-20T17:35:17.665440","LAUNCH_DATE":"2019-11-11","MEAN_ANOMALY":"196.4698"},{"TIME_SYSTEM":"UTC","MEAN_MOTION_DOT":"0.00021134","OBJECT_TYPE":"PAYLOAD","BSTAR":"0.00143400000000","MEAN_MOTION":"15.06386351","ARG_OF_PERICENTER":"102.0298","EPOCH":"2023-06-20T17:43:45.302592","LAUNCH_DATE":"2019-11-11","MEAN_ANOMALY":"258.0804","MEAN_MOTION_DDOT":"0.0000000000000","TLE_LINE2":"2 44731  53.0547 324.1457 0001014 102.0298 258.0804 15.06386351199081","PERIOD":"95.593","COUNTRY_CODE":"US","TLE_LINE1":"1 44731U 19074U   23171.73871878  .00021134  00000-0  14340-2 0  9998","RA_OF_ASC_NODE":"324.1457","FILE":"3938544","SITE":"AFETR","INCLINATION":"53.0547","ECCENTRICITY":"0.00010140","CLASSIFICATION_TYPE":"U","DECAY_DATE":null,"NORAD_CAT_ID":"44731","GP_ID":"234389380","SEMIMAJOR_AXIS":"6925.390","APOAPSIS":"547.958","PERIAPSIS":"546.553","ELEMENT_SET_NO":"999","EPHEMERIS_TYPE":"0","CENTER_NAME":"EARTH","OBJECT_ID":"2019-074U","OBJECT_NAME":"STARLINK-1026","REF_FRAME":"TEME","REV_AT_EPOCH":"19908","RCS_SIZE":"LARGE","MEAN_ELEMENT_THEORY":"SGP4"},{"MEAN_ANOMALY":"285.1049","EPOCH":"2023-06-20T20:36:15.393600","ARG_OF_PERICENTER":"75.0089","LAUNCH_DATE":"2019-11-11","MEAN_MOTION":"15.06393305","MEAN_MOTION_DOT":"0.00004872","TIME_SYSTEM":"UTC","OBJECT_TYPE":"PAYLOAD","BSTAR":"0.00034581000000","RA_OF_ASC_NODE":"343.6085","TLE_LINE1":"1 44732U 19074V   23171.85851150  .00004872  00000-0  34581-3 0  9993","FILE":"3938544","TLE_LINE2":"2 44732  53.0546 343.6085 0001355  75.0089 285.1049 15.06393305198829","PERIOD":"95.593","COUNTRY_CODE":"US","MEAN_MOTION_DDOT":"0.0000000000000","CLASSIFICATION_TYPE":"U","DECAY_DATE":null,"ECCENTRICITY":"0.00013550","SITE":"AFETR","INCLINATION":"53.0546","RCS_SIZE":"LARGE","MEAN_ELEMENT_THEORY":"SGP4","REF_FRAME":"TEME","OBJECT_NAME":"STARLINK-1027","REV_AT_EPOCH":"19882","ELEMENT_SET_NO":"999","EPHEMERIS_TYPE":"0","CENTER_NAME":"EARTH","OBJECT_ID":"2019-074V","GP_ID":"234387632","SEMIMAJOR_AXIS":"6925.369","NORAD_CAT_ID":"44732","APOAPSIS":"548.172","PERIAPSIS":"546.296"},{"REV_AT_EPOCH":"19910","REF_FRAME":"TEME","OBJECT_NAME":"STARLINK-1028","MEAN_ELEMENT_THEORY":"SGP4","RCS_SIZE":"LARGE","APOAPSIS":"547.871","PERIAPSIS":"546.601","GP_ID":"234388382","NORAD_CAT_ID":"44733","SEMIMAJOR_AXIS":"6925.371","CENTER_NAME":"EARTH","OBJECT_ID":"2019-074W","EPHEMERIS_TYPE":"0","ELEMENT_SET_NO":"999","ECCENTRICITY":"0.00009170","CLASSIFICATION_TYPE":"U","DECAY_DATE":null,"INCLINATION":"53.0555","SITE":"AFETR","PERIOD":"95.593","COUNTRY_CODE":"US","TLE_LINE2":"2 44733  53.0555 323.6204 0000917  97.0822 263.0271 15.06392652199101","RA_OF_ASC_NODE":"323.6204","TLE_LINE1":"1 44733U 19074W   23171.85666864  .00029191  00000-0  19709-2 0  9995","FILE":"3938544","MEAN_MOTION_DDOT":"0.0000000000000","LAUNCH_DATE":"2019-11-11","ARG_OF_PERICENTER":"97.0822","EPOCH":"2023-06-20T20:33:36.170496","MEAN_ANOMALY":"263.0271","OBJECT_TYPE":"PAYLOAD","BSTAR":"0.00197090000000","TIME_SYSTEM":"UTC","MEAN_MOTION_DOT":"0.00029191","MEAN_MOTION":"15.06392652"},{"FILE":"3938544","TLE_LINE1":"1 44734U 19074X   23171.60603245  .00009444  00000-0  65212-3 0  9993","RA_OF_ASC_NODE":"244.7479","COUNTRY_CODE":"US","PERIOD":"95.593","TLE_LINE2":"2 44734  53.0521 244.7479 0001164  79.9120 280.2001 15.06393888200160","MEAN_MOTION_DDOT":"0.0000000000000","MEAN_ANOMALY":"280.2001","LAUNCH_DATE":"2019-11-11","ARG_OF_PERICENTER":"79.9120","EPOCH":"2023-06-20T14:32:41.203680","MEAN_MOTION":"15.06393888","OBJECT_TYPE":"PAYLOAD","BSTAR":"0.00065212000000","TIME_SYSTEM":"UTC","MEAN_MOTION_DOT":"0.00009444","MEAN_ELEMENT_THEORY":"SGP4","RCS_SIZE":"LARGE","REV_AT_EPOCH":"20016","OBJECT_NAME":"STARLINK-1029","REF_FRAME":"TEME","OBJECT_ID":"2019-074X","CENTER_NAME":"EARTH","EPHEMERIS_TYPE":"0","ELEMENT_SET_NO":"999","PERIAPSIS":"546.426","APOAPSIS":"548.038","NORAD_CAT_ID":"44734","GP_ID":"234388633","SEMIMAJOR_AXIS":"6925.367","DECAY_DATE":null,"CLASSIFICATION_TYPE":"U","ECCENTRICITY":"0.00011640","INCLINATION":"53.0521","SITE":"AFETR"},{"CENTER_NAME":"EARTH","OBJECT_ID":"2019-074Y","ELEMENT_SET_NO":"999","EPHEMERIS_TYPE":"0","APOAPSIS":"547.994","PERIAPSIS":"546.550","NORAD_CAT_ID":"44735","GP_ID":"234388881","SEMIMAJOR_AXIS":"6925.407","MEAN_ELEMENT_THEORY":"SGP4","RCS_SIZE":"LARGE","REV_AT_EPOCH":"19882","REF_FRAME":"TEME","OBJECT_NAME":"STARLINK-1030","INCLINATION":"53.0545","SITE":"AFETR","CLASSIFICATION_TYPE":"U","DECAY_DATE":null,"ECCENTRICITY":"0.00010430","MEAN_MOTION_DDOT":"0.0000000000000","TLE_LINE1":"1 44735U 19074Y   23171.86588657  .00023523  00000-0  15936-2 0  9992","RA_OF_ASC_NODE":"343.5801","FILE":"3938544","PERIOD":"95.593","COUNTRY_CODE":"US","TLE_LINE2":"2 44735  53.0545 343.5801 0001043  66.8765 293.2334 15.06380955198823","MEAN_MOTION":"15.06380955","OBJECT_TYPE":"PAYLOAD","BSTAR":"0.00159360000000","TIME_SYSTEM":"UTC","MEAN_MOTION_DOT":"0.00023523","MEAN_ANOMALY":"293.2334","LAUNCH_DATE":"2019-11-11","EPOCH":"2023-06-20T20:46:52.599648","ARG_OF_PERICENTER":"66.8765"}];
